{
    "links": {
        "self": "http://www.neowsapp.com/rest/v1/neo/54051172?api_key=iIulBulltgU6a56xZRHN4H3l9WmuAYTsLGpBGhQ2"
    },
    "id": "54051172",
    "neo_reference_id": "54051172",
    "name": "(2020 QX)",
    "designation": "2020 QX",
    "nasa_jpl_url": "http://ssd.jpl.nasa.gov/sbdb.cgi?sstr=54051172",
    "absolute_magnitude_h": 21.364,
    "estimated_diameter": {
        "kilometers": {
            "estimated_diameter_min": 0.1418257133,
            "estimated_diameter_max": 0.317131936
        },
        "meters": {
            "estimated_diameter_min": 141.8257133387,
            "estimated_diameter_max": 317.1319359827
        },
        "miles": {
            "estimated_diameter_min": 0.0881263853,
            "estimated_diameter_max": 0.1970565882
        },
        "feet": {
            "estimated_diameter_min": 465.3074733501,
            "estimated_diameter_max": 1040.4591408494
        }
    },
    "is_potentially_hazardous_asteroid": false,
    "close_approach_data": [
        {
            "close_approach_date": "1998-08-12",
            "close_approach_date_full": "1998-Aug-12 10:33",
            "epoch_date_close_approach": 902917980000,
            "relative_velocity": {
                "kilometers_per_second": "3.3802623685",
                "kilometers_per_hour": "12168.9445266316",
                "miles_per_hour": "7561.3088921173"
            },
            "miss_distance": {
                "astronomical": "0.3495103807",
                "lunar": "135.9595380923",
                "kilometers": "52286008.495609109",
                "miles": "32489019.1433353442"
            },
            "orbiting_body": "Earth"
        },
        {
            "close_approach_date": "2001-11-01",
            "close_approach_date_full": "2001-Nov-01 12:16",
            "epoch_date_close_approach": 1004616960000,
            "relative_velocity": {
                "kilometers_per_second": "7.455171617",
                "kilometers_per_hour": "26838.6178211359",
                "miles_per_hour": "16676.4733900275"
            },
            "miss_distance": {
                "astronomical": "0.0380754591",
                "lunar": "14.8113535899",
                "kilometers": "5696007.580632117",
                "miles": "3539334.9894605346"
            },
            "orbiting_body": "Mars"
        },
        {
            "close_approach_date": "2020-07-26",
            "close_approach_date_full": "2020-Jul-26 10:08",
            "epoch_date_close_approach": 1595758080000,
            "relative_velocity": {
                "kilometers_per_second": "3.3711807363",
                "kilometers_per_hour": "12136.2506505949",
                "miles_per_hour": "7540.9941889766"
            },
            "miss_distance": {
                "astronomical": "0.2889215429",
                "lunar": "112.3904801881",
                "kilometers": "43222047.414953623",
                "miles": "26856934.8910330774"
            },
            "orbiting_body": "Earth"
        }
    ],
    "orbital_data": {
        "orbit_id": "7",
        "orbit_determination_date": "2020-10-26 09:36:05",
        "first_observation_date": "2020-08-16",
        "last_observation_date": "2020-09-25",
        "data_arc_in_days": 40,
        "observations_used": 57,
        "orbit_uncertainty": "6",
        "minimum_orbit_intersection": ".285023",
        "jupiter_tisserand_invariant": "3.592",
        "epoch_osculation": "2459000.5",
        "eccentricity": ".4001169958955824",
        "semi_major_axis": "2.148771717147028",
        "inclination": "6.552830252536576",
        "ascending_node_longitude": "161.7353036779967",
        "orbital_period": "1150.492641854711",
        "perihelion_distance": "1.289011632816767",
        "perihelion_argument": "141.2016700763131",
        "aphelion_distance": "3.008531801477288",
        "perihelion_time": "2459058.786021477494",
        "mean_anomaly": "341.7617540794776",
        "mean_motion": ".3129094327971045",
        "equinox": "J2000",
        "orbit_class": {
            "orbit_class_type": "AMO",
            "orbit_class_description": "Near-Earth asteroid orbits similar to that of 1221 Amor",
            "orbit_class_range": "1.017 AU < q (perihelion) < 1.3 AU"
        }
    },
    "is_sentry_object": false
}